IRIDIUM 112             
1 41925U 17003J   25041.75386781  .00000008  00000+0 -43380-5 0  9990
2 41925  86.3958 293.6581 0001726  87.1656 272.9737 14.34217694422832
IRIDIUM 111             
1 41926U 17003K   25041.74118341  .00000398  00000+0  13505-3 0  9990
2 41926  86.3959 293.7233 0002238  85.5747 274.5705 14.34218891422812
IRIDIUM 113             
1 42803U 17039A   25042.34906528  .00000450  00000+0  15372-3 0  9996
2 42803  86.4036 167.3084 0001710 107.8704 252.2679 14.34216262400830
IRIDIUM 123             
1 42804U 17039B   25041.90216044  .00000619  00000+0  21398-3 0  9997
2 42804  86.4000 198.9150 0002272  95.0987 265.0468 14.34221396399537
IRIDIUM 120             
1 42805U 17039C   25042.41249125  .00000035  00000+0  55093-5 0  9994
2 42805  86.4030 167.1284 0002336  91.4575 268.6889 14.34217914400834
IRIDIUM 115             
1 42806U 17039D   25041.84026711  .00000876  00000+0  25456-3 0  9996
2 42806  86.4565 167.4273 0002628 100.5644 259.5853 14.43278004403393
IRIDIUM 118             
1 42807U 17039E   25042.49201944  .00000614  00000+0  21228-3 0  9995
2 42807  86.4001 198.6691 0002026  94.5553 265.5875 14.34222100399629
IRIDIUM 117             
1 42808U 17039F   25042.16221027  .00000061  00000+0  14754-4 0  9997
2 42808  86.4000 198.7692 0002359  97.1142 263.0322 14.34217780399609
